start=new Date('2023-04-19T00:00:00.000Z').valueOf();
sats=[{"GP_ID":"230327028","DECAY_DATE":null,"COUNTRY_CODE":"US","REV_AT_EPOCH":"17056","CENTER_NAME":"EARTH","ARG_OF_PERICENTER":"107.0100","ELEMENT_SET_NO":"999","EPOCH":"2023-04-18T15:23:01.358016","NORAD_CAT_ID":"45368","APOAPSIS":"547.964","MEAN_MOTION":"15.06390021","RA_OF_ASC_NODE":"227.3993","PERIOD":"95.593","CLASSIFICATION_TYPE":"U","RCS_SIZE":"LARGE","MEAN_MOTION_DDOT":"0.0000000000000","INCLINATION":"53.0535","BSTAR":"0.00195490000000","OBJECT_TYPE":"PAYLOAD","FILE":"3889987","TLE_LINE2":"2 45368  53.0535 227.3993 0001040 107.0100 253.1003 15.06390021170568","TIME_SYSTEM":"UTC","TLE_LINE1":"1 45368U 20019J   23108.64098794  .00028949  00000-0  19549-2 0  9991","LAUNCH_DATE":"2020-03-18","MEAN_MOTION_DOT":"0.00028949","EPHEMERIS_TYPE":"0","REF_FRAME":"TEME","MEAN_ELEMENT_THEORY":"SGP4","OBJECT_ID":"2020-019J","MEAN_ANOMALY":"253.1003","PERIAPSIS":"546.524","ECCENTRICITY":"0.00010400","SITE":"AFETR","OBJECT_NAME":"STARLINK-1276","SEMIMAJOR_AXIS":"6925.379"},{"ELEMENT_SET_NO":"999","EPOCH":"2023-04-18T15:21:39.418848","NORAD_CAT_ID":"45369","APOAPSIS":"548.053","GP_ID":"230328276","DECAY_DATE":null,"REV_AT_EPOCH":"17056","COUNTRY_CODE":"US","CENTER_NAME":"EARTH","ARG_OF_PERICENTER":"86.6981","RCS_SIZE":"LARGE","INCLINATION":"53.0541","MEAN_MOTION_DDOT":"0.0000000000000","MEAN_MOTION":"15.06375871","RA_OF_ASC_NODE":"227.4072","PERIOD":"95.594","CLASSIFICATION_TYPE":"U","TLE_LINE1":"1 45369U 20019K   23108.64003957  .00025008  00000-0  16929-2 0  9991","MEAN_MOTION_DOT":"0.00025008","LAUNCH_DATE":"2020-03-18","EPHEMERIS_TYPE":"0","BSTAR":"0.00169290000000","FILE":"3889987","OBJECT_TYPE":"PAYLOAD","TIME_SYSTEM":"UTC","TLE_LINE2":"2 45369  53.0541 227.4072 0001105  86.6981 273.4134 15.06375871170562","PERIAPSIS":"546.522","SEMIMAJOR_AXIS":"6925.423","SITE":"AFETR","ECCENTRICITY":"0.00011050","OBJECT_NAME":"STARLINK-1277","MEAN_ELEMENT_THEORY":"SGP4","OBJECT_ID":"2020-019K","REF_FRAME":"TEME","MEAN_ANOMALY":"273.4134"},{"MEAN_MOTION_DOT":"0.00035420","LAUNCH_DATE":"2020-03-18","TLE_LINE1":"1 45370U 20019L   23108.69627166  .00035420  00000-0  23865-2 0  9998","EPHEMERIS_TYPE":"0","BSTAR":"0.00238650000000","TIME_SYSTEM":"UTC","TLE_LINE2":"2 45370  53.0532 227.1507 0001190  66.1093 294.0021 15.06374045170572","FILE":"3889987","OBJECT_TYPE":"PAYLOAD","SEMIMAJOR_AXIS":"6925.428","OBJECT_NAME":"STARLINK-1281","SITE":"AFETR","ECCENTRICITY":"0.00011900","PERIAPSIS":"546.469","MEAN_ANOMALY":"294.0021","MEAN_ELEMENT_THEORY":"SGP4","OBJECT_ID":"2020-019L","REF_FRAME":"TEME","EPOCH":"2023-04-18T16:42:37.871424","ELEMENT_SET_NO":"999","APOAPSIS":"548.117","NORAD_CAT_ID":"45370","DECAY_DATE":null,"GP_ID":"230328524","CENTER_NAME":"EARTH","ARG_OF_PERICENTER":"66.1093","REV_AT_EPOCH":"17057","COUNTRY_CODE":"US","INCLINATION":"53.0532","RCS_SIZE":"LARGE","MEAN_MOTION_DDOT":"0.0000000000000","RA_OF_ASC_NODE":"227.1507","MEAN_MOTION":"15.06374045","CLASSIFICATION_TYPE":"U","PERIOD":"95.594"},{"EPOCH":"2023-04-18T14:12:40.775040","ELEMENT_SET_NO":"999","APOAPSIS":"548.236","NORAD_CAT_ID":"45371","GP_ID":"230326780","DECAY_DATE":null,"CENTER_NAME":"EARTH","ARG_OF_PERICENTER":"73.7038","COUNTRY_CODE":"US","REV_AT_EPOCH":"17055","RCS_SIZE":"LARGE","MEAN_MOTION_DDOT":"0.0000000000000","INCLINATION":"53.0536","RA_OF_ASC_NODE":"227.6088","MEAN_MOTION":"15.06390376","CLASSIFICATION_TYPE":"U","PERIOD":"95.593","LAUNCH_DATE":"2020-03-18","MEAN_MOTION_DOT":"0.00028368","TLE_LINE1":"1 45371U 20019M   23108.59213860  .00028368  00000-0  19162-2 0  9998","EPHEMERIS_TYPE":"0","BSTAR":"0.00191620000000","TIME_SYSTEM":"UTC","TLE_LINE2":"2 45371  53.0536 227.6088 0001434  73.7038 286.4108 15.06390376170554","OBJECT_TYPE":"PAYLOAD","FILE":"3889987","OBJECT_NAME":"STARLINK-1287","SITE":"AFETR","ECCENTRICITY":"0.00014340","SEMIMAJOR_AXIS":"6925.378","PERIAPSIS":"546.250","MEAN_ANOMALY":"286.4108","REF_FRAME":"TEME","OBJECT_ID":"2020-019M","MEAN_ELEMENT_THEORY":"SGP4"},{"RCS_SIZE":"LARGE","INCLINATION":"53.0541","MEAN_MOTION_DDOT":"0.0000000000000","RA_OF_ASC_NODE":"226.9588","MEAN_MOTION":"15.06374802","CLASSIFICATION_TYPE":"U","PERIOD":"95.594","EPOCH":"2023-04-18T17:46:19.376256","ELEMENT_SET_NO":"999","APOAPSIS":"548.246","NORAD_CAT_ID":"45372","DECAY_DATE":null,"GP_ID":"230327526","ARG_OF_PERICENTER":"61.4546","CENTER_NAME":"EARTH","COUNTRY_CODE":"US","REV_AT_EPOCH":"17057","OBJECT_NAME":"STARLINK-1288","SITE":"AFETR","ECCENTRICITY":"0.00013800","SEMIMAJOR_AXIS":"6925.426","PERIAPSIS":"546.335","MEAN_ANOMALY":"298.6582","REF_FRAME":"TEME","OBJECT_ID":"2020-019N","MEAN_ELEMENT_THEORY":"SGP4","LAUNCH_DATE":"2020-03-18","MEAN_MOTION_DOT":"0.00034729","TLE_LINE1":"1 45372U 20019N   23108.74050204  .00034729  00000-0  23405-2 0  9990","EPHEMERIS_TYPE":"0","BSTAR":"0.00234050000000","TLE_LINE2":"2 45372  53.0541 226.9588 0001380  61.4546 298.6582 15.06374802170575","TIME_SYSTEM":"UTC","OBJECT_TYPE":"PAYLOAD","FILE":"3889987"},{"CLASSIFICATION_TYPE":"U","PERIOD":"95.592","RA_OF_ASC_NODE":"227.6366","MEAN_MOTION":"15.06406498","INCLINATION":"53.0534","RCS_SIZE":"LARGE","MEAN_MOTION_DDOT":"0.0000000000000","CENTER_NAME":"EARTH","ARG_OF_PERICENTER":"97.6914","COUNTRY_CODE":"US","REV_AT_EPOCH":"17055","GP_ID":"230327777","DECAY_DATE":null,"APOAPSIS":"548.052","NORAD_CAT_ID":"45373","EPOCH":"2023-04-18T14:08:39.249888","ELEMENT_SET_NO":"999","MEAN_ANOMALY":"262.4216","REF_FRAME":"TEME","MEAN_ELEMENT_THEORY":"SGP4","OBJECT_ID":"2020-019P","OBJECT_NAME":"STARLINK-1295","SITE":"AFETR","ECCENTRICITY":"0.00012400","SEMIMAJOR_AXIS":"6925.329","PERIAPSIS":"546.335","TIME_SYSTEM":"UTC","TLE_LINE2":"2 45373  53.0534 227.6366 0001240  97.6914 262.4216 15.06406498170553","OBJECT_TYPE":"PAYLOAD","FILE":"3889987","BSTAR":"0.00030183000000","EPHEMERIS_TYPE":"0","LAUNCH_DATE":"2020-03-18","MEAN_MOTION_DOT":"0.00004218","TLE_LINE1":"1 45373U 20019P   23108.58934317  .00004218  00000-0  30183-3 0  9991"},{"TLE_LINE1":"1 45374U 20019Q   23108.71839319  .00039217  00000-0  26377-2 0  9999","LAUNCH_DATE":"2020-03-18","MEAN_MOTION_DOT":"0.00039217","EPHEMERIS_TYPE":"0","BSTAR":"0.00263770000000","OBJECT_TYPE":"PAYLOAD","FILE":"3889987","TLE_LINE2":"2 45374  53.0539 227.0542 0001205  99.5223 260.5902 15.06391238170572","TIME_SYSTEM":"UTC","PERIAPSIS":"546.406","OBJECT_NAME":"STARLINK-1300","SITE":"AFETR","ECCENTRICITY":"0.00012050","SEMIMAJOR_AXIS":"6925.375","REF_FRAME":"TEME","OBJECT_ID":"2020-019Q","MEAN_ELEMENT_THEORY":"SGP4","MEAN_ANOMALY":"260.5902","ELEMENT_SET_NO":"999","EPOCH":"2023-04-18T17:14:29.171616","NORAD_CAT_ID":"45374","APOAPSIS":"548.075","DECAY_DATE":null,"GP_ID":"230328025","COUNTRY_CODE":"US","REV_AT_EPOCH":"17057","ARG_OF_PERICENTER":"99.5223","CENTER_NAME":"EARTH","INCLINATION":"53.0539","RCS_SIZE":"LARGE","MEAN_MOTION_DDOT":"0.0000000000000","MEAN_MOTION":"15.06391238","RA_OF_ASC_NODE":"227.0542","PERIOD":"95.593","CLASSIFICATION_TYPE":"U"},{"INCLINATION":"53.0532","RCS_SIZE":"LARGE","MEAN_MOTION_DDOT":"0.0000000000000","MEAN_MOTION":"15.06374140","RA_OF_ASC_NODE":"226.6904","PERIOD":"95.594","CLASSIFICATION_TYPE":"U","ELEMENT_SET_NO":"999","EPOCH":"2023-04-18T19:11:15.719136","NORAD_CAT_ID":"45375","APOAPSIS":"548.444","DECAY_DATE":null,"GP_ID":"230327279","REV_AT_EPOCH":"17058","COUNTRY_CODE":"US","CENTER_NAME":"EARTH","ARG_OF_PERICENTER":"109.2116","PERIAPSIS":"546.142","SEMIMAJOR_AXIS":"6925.428","ECCENTRICITY":"0.00016620","SITE":"AFETR","OBJECT_NAME":"STARLINK-1302","OBJECT_ID":"2020-019R","MEAN_ELEMENT_THEORY":"SGP4","REF_FRAME":"TEME","MEAN_ANOMALY":"250.9053","TLE_LINE1":"1 45375U 20019R   23108.79948749  .00027730  00000-0  18745-2 0  9993","MEAN_MOTION_DOT":"0.00027730","LAUNCH_DATE":"2020-03-18","EPHEMERIS_TYPE":"0","BSTAR":"0.00187450000000","FILE":"3889987","OBJECT_TYPE":"PAYLOAD","TLE_LINE2":"2 45375  53.0532 226.6904 0001662 109.2116 250.9053 15.06374140170584","TIME_SYSTEM":"UTC"},{"BSTAR":"0.00208360000000","TIME_SYSTEM":"UTC","TLE_LINE2":"2 45376  53.0537 226.9097 0000974 116.7105 243.3984 15.06392182170576","FILE":"3889987","OBJECT_TYPE":"PAYLOAD","MEAN_MOTION_DOT":"0.00030884","LAUNCH_DATE":"2020-03-18","TLE_LINE1":"1 45376U 20019S   23108.75156985  .00030884  00000-0  20836-2 0  9991","EPHEMERIS_TYPE":"0","MEAN_ANOMALY":"243.3984","MEAN_ELEMENT_THEORY":"SGP4","OBJECT_ID":"2020-019S","REF_FRAME":"TEME","SEMIMAJOR_AXIS":"6925.373","ECCENTRICITY":"0.00009740","SITE":"AFETR","OBJECT_NAME":"STARLINK-1304","PERIAPSIS":"546.563","GP_ID":"230327029","DECAY_DATE":null,"CENTER_NAME":"EARTH","ARG_OF_PERICENTER":"116.7105","REV_AT_EPOCH":"17057","COUNTRY_CODE":"US","EPOCH":"2023-04-18T18:02:15.635040","ELEMENT_SET_NO":"999","APOAPSIS":"547.912","NORAD_CAT_ID":"45376","RA_OF_ASC_NODE":"226.9097","MEAN_MOTION":"15.06392182","CLASSIFICATION_TYPE":"U","PERIOD":"95.593","RCS_SIZE":"LARGE","INCLINATION":"53.0537","MEAN_MOTION_DDOT":"0.0000000000000"},{"EPHEMERIS_TYPE":"0","MEAN_MOTION_DOT":"0.00015359","LAUNCH_DATE":"2020-03-18","TLE_LINE1":"1 45377U 20019T   23108.84370521  .00015359  00000-0  10480-2 0  9990","TIME_SYSTEM":"UTC","TLE_LINE2":"2 45377  53.0544 226.4945 0001400  55.3955 304.7166 15.06391218170593","FILE":"3889913","OBJECT_TYPE":"PAYLOAD","BSTAR":"0.00104800000000","SEMIMAJOR_AXIS":"6925.375","SITE":"AFETR","OBJECT_NAME":"STARLINK-1305","ECCENTRICITY":"0.00014000","PERIAPSIS":"546.271","MEAN_ANOMALY":"304.7166","OBJECT_ID":"2020-019T","MEAN_ELEMENT_THEORY":"SGP4","REF_FRAME":"TEME","APOAPSIS":"548.210","NORAD_CAT_ID":"45377","EPOCH":"2023-04-18T20:14:56.130144","ELEMENT_SET_NO":"999","ARG_OF_PERICENTER":"55.3955","CENTER_NAME":"EARTH","REV_AT_EPOCH":"17059","COUNTRY_CODE":"US","GP_ID":"230307352","DECAY_DATE":null,"RCS_SIZE":"LARGE","INCLINATION":"53.0544","MEAN_MOTION_DDOT":"0.0000000000000","CLASSIFICATION_TYPE":"U","PERIOD":"95.593","RA_OF_ASC_NODE":"226.4945","MEAN_MOTION":"15.06391218"}];
